[
    {
        "id": 1,
        "issues": [],
        "generated_id": "8",
        "name": "V. Sargsyan",
        "name_en": "V. Sargsyan",
        "name_hy": "Վ․ Սարգսյան",
        "parent_name": "Yerevan",
        "parent_name_en": "Yerevan",
        "parent_name_hy": "Երևան",
        "latitude": "40.185285211985200",
        "longitude": "44.560020127804500"
    },
    {
        "id": 2,
        "issues": [],
        "generated_id": "1",
        "name": "Maralik",
        "name_en": "Maralik",
        "name_hy": "Մարալիկ",
        "parent_name": "Shirak",
        "parent_name_en": "Shirak",
        "parent_name_hy": "Շիրակ",
        "latitude": "40.580710700000000",
        "longitude": "43.869260800000000"
    },
    {
        "id": 3,
        "issues": [],
        "generated_id": "2",
        "name": "Panik",
        "name_en": "Panik",
        "name_hy": "Փանիկ",
        "parent_name": "Shirak",
        "parent_name_en": "Shirak",
        "parent_name_hy": "Շիրակ",
        "latitude": "40.659164000000000",
        "longitude": "43.971953000000000"
    },
    {
        "id": 4,
        "issues": [],
        "generated_id": "3",
        "name": "Azatan",
        "name_en": "Azatan",
        "name_hy": "Ազատան",
        "parent_name": "Shirak",
        "parent_name_en": "Shirak",
        "parent_name_hy": "Շիրակ",
        "latitude": "40.724777000000000",
        "longitude": "43.829406000000000"
    },
    {
        "id": 5,
        "issues": [],
        "generated_id": "4",
        "name": "Artik",
        "name_en": "Artik",
        "name_hy": "Արթիկ",
        "parent_name": "Shirak",
        "parent_name_en": "Shirak",
        "parent_name_hy": "Շիրակ",
        "latitude": "40.625502000000000",
        "longitude": "43.957910000000000"
    },
    {
        "id": 6,
        "issues": [],
        "generated_id": "9",
        "name": "Sevan",
        "name_en": "Sevan",
        "name_hy": "Սևան",
        "parent_name": "Gegharkunik",
        "parent_name_en": "Gegharkunik",
        "parent_name_hy": "Գեղարքունիք",
        "latitude": "40.542608000000000",
        "longitude": "44.957909000000000"
    },
    {
        "id": 7,
        "issues": [
            {
                "id": 1,
                "name": "Temperature, Humidity, Pressure",
                "name_en": "Temperature, Humidity, Pressure",
                "name_hy": "Ջերմաստիճան, խոնավություն, ճնշում"
            },
            {
                "id": 2,
                "name": "UV Index and Light Intensity",
                "name_en": "UV Index and Light Intensity",
                "name_hy": "UV ինդեքս և լույսի ինտենսիվություն"
            }
        ],
        "generated_id": "6",
        "name": "Gavar",
        "name_en": "Gavar",
        "name_hy": "Գավառ",
        "parent_name": "Gegharkunik",
        "parent_name_en": "Gegharkunik",
        "parent_name_hy": "Գեղարքունիք",
        "latitude": "40.345572000000000",
        "longitude": "45.125700000000000"
    },
    {
        "id": 8,
        "issues": [
            {
                "id": 2,
                "name": "UV Index and Light Intensity",
                "name_en": "UV Index and Light Intensity",
                "name_hy": "UV ինդեքս և լույսի ինտենսիվություն"
            },
            {
                "id": 3,
                "name": "Air Pollution",
                "name_en": "Air Pollution",
                "name_hy": "Օդի աղտոտվածություն"
            }
        ],
        "generated_id": "5",
        "name": "Ashotsk",
        "name_en": "Ashotsk",
        "name_hy": "Աշոցք",
        "parent_name": "Shirak",
        "parent_name_en": "Shirak",
        "parent_name_hy": "Շիրակ",
        "latitude": "41.038679000000000",
        "longitude": "43.857348000000000"
    },
    {
        "id": 9,
        "issues": [
            {
                "id": 1,
                "name": "Temperature, Humidity, Pressure",
                "name_en": "Temperature, Humidity, Pressure",
                "name_hy": "Ջերմաստիճան, խոնավություն, ճնշում"
            },
            {
                "id": 2,
                "name": "UV Index and Light Intensity",
                "name_en": "UV Index and Light Intensity",
                "name_hy": "UV ինդեքս և լույսի ինտենսիվություն"
            }
        ],
        "generated_id": "11",
        "name": "Amasia",
        "name_en": "Amasia",
        "name_hy": "Ամասիա",
        "parent_name": "Shirak",
        "parent_name_en": "Shirak",
        "parent_name_hy": "Շիրակ",
        "latitude": "40.952267000000000",
        "longitude": "43.786408000000000"
    },
    {
        "id": 11,
        "issues": [],
        "generated_id": "7",
        "name": "Akhuryan",
        "name_en": "Akhuryan",
        "name_hy": "Ախուրյան",
        "parent_name": "Shirak",
        "parent_name_en": "Shirak",
        "parent_name_hy": "Շիրակ",
        "latitude": "40.780987000000000",
        "longitude": "43.886296000000000"
    },
    {
        "id": 13,
        "issues": [],
        "generated_id": "14",
        "name": "TUMO",
        "name_en": "TUMO",
        "name_hy": "ԹՈՒՄՈ",
        "parent_name": "Yerevan",
        "parent_name_en": "Yerevan",
        "parent_name_hy": "Երևան",
        "latitude": "40.197641000000000",
        "longitude": "44.479521000000000"
    },
    {
        "id": 15,
        "issues": [
            {
                "id": 1,
                "name": "Temperature, Humidity, Pressure",
                "name_en": "Temperature, Humidity, Pressure",
                "name_hy": "Ջերմաստիճան, խոնավություն, ճնշում"
            },
            {
                "id": 2,
                "name": "UV Index and Light Intensity",
                "name_en": "UV Index and Light Intensity",
                "name_hy": "UV ինդեքս և լույսի ինտենսիվություն"
            }
        ],
        "generated_id": "17",
        "name": "Chambarak",
        "name_en": "Chambarak",
        "name_hy": "Ճամբարակ",
        "parent_name": "Gegharkunik",
        "parent_name_en": "Gegharkunik",
        "parent_name_hy": "Գեղարքունիք",
        "latitude": "40.596135000000000",
        "longitude": "45.352558000000000"
    },
    {
        "id": 16,
        "issues": [
            {
                "id": 1,
                "name": "Temperature, Humidity, Pressure",
                "name_en": "Temperature, Humidity, Pressure",
                "name_hy": "Ջերմաստիճան, խոնավություն, ճնշում"
            }
        ],
        "generated_id": "16",
        "name": "Berd",
        "name_en": "Berd",
        "name_hy": "Բերդ",
        "parent_name": "Tavush",
        "parent_name_en": "Tavush",
        "parent_name_hy": "Տավուշ",
        "latitude": "40.881753000000000",
        "longitude": "45.395091000000000"
    },
    {
        "id": 17,
        "issues": [
            {
                "id": 3,
                "name": "Air Pollution",
                "name_en": "Air Pollution",
                "name_hy": "Օդի աղտոտվածություն"
            }
        ],
        "generated_id": "13",
        "name": "Artsvaberd",
        "name_en": "Artsvaberd",
        "name_hy": "Արծվաբերդ",
        "parent_name": "Tavush",
        "parent_name_en": "Tavush",
        "parent_name_hy": "Տավուշ",
        "latitude": "40.841126000000000",
        "longitude": "45.470587000000000"
    },
    {
        "id": 18,
        "issues": [],
        "generated_id": "15",
        "name": "Ijevan",
        "name_en": "Ijevan",
        "name_hy": "Իջևան",
        "parent_name": "Tavush",
        "parent_name_en": "Tavush",
        "parent_name_hy": "Տավուշ",
        "latitude": "40.879216000000000",
        "longitude": "45.157368000000000"
    },
    {
        "id": 19,
        "issues": [
            {
                "id": 3,
                "name": "Air Pollution",
                "name_en": "Air Pollution",
                "name_hy": "Օդի աղտոտվածություն"
            }
        ],
        "generated_id": "18",
        "name": "Azatamut",
        "name_en": "Azatamut",
        "name_hy": "Ազատամուտ",
        "parent_name": "Tavush",
        "parent_name_en": "Tavush",
        "parent_name_hy": "Տավուշ",
        "latitude": "40.989997000000000",
        "longitude": "45.208300000000000"
    },
    {
        "id": 21,
        "issues": [],
        "generated_id": "19",
        "name": "Spitak",
        "name_en": "Spitak",
        "name_hy": "Սպիտակ",
        "parent_name": "Lori",
        "parent_name_en": "Lori",
        "parent_name_hy": "Լոռի",
        "latitude": "40.831840000000000",
        "longitude": "44.279795000000000"
    },
    {
        "id": 22,
        "issues": [],
        "generated_id": "20",
        "name": "Stepanavan",
        "name_en": "Stepanavan",
        "name_hy": "Ստեփանավան",
        "parent_name": "Lori",
        "parent_name_en": "Lori",
        "parent_name_hy": "Լոռի",
        "latitude": "41.020310000000000",
        "longitude": "44.382210000000000"
    },
    {
        "id": 23,
        "issues": [
            {
                "id": 3,
                "name": "Air Pollution",
                "name_en": "Air Pollution",
                "name_hy": "Օդի աղտոտվածություն"
            },
            {
                "id": 5,
                "name": "Rainfall Quantity",
                "name_en": "Rainfall Quantity",
                "name_hy": "Անձրևի քանակ"
            }
        ],
        "generated_id": "22",
        "name": "Areni",
        "name_en": "Areni",
        "name_hy": "Արենի",
        "parent_name": "Vayots Dzor",
        "parent_name_en": "Vayots Dzor",
        "parent_name_hy": "Վայոց ձոր",
        "latitude": "39.718260400000000",
        "longitude": "45.177450600000000"
    },
    {
        "id": 24,
        "issues": [],
        "generated_id": "21",
        "name": "Vayk",
        "name_en": "Vayk",
        "name_hy": "Վայք",
        "parent_name": "Vayots Dzor",
        "parent_name_en": "Vayots Dzor",
        "parent_name_hy": "Վայոց ձոր",
        "latitude": "39.689995200000000",
        "longitude": "45.466545800000000"
    },
    {
        "id": 25,
        "issues": [],
        "generated_id": "23",
        "name": "Jermuk",
        "name_en": "Jermuk",
        "name_hy": "Ջերմուկ",
        "parent_name": "Vayots Dzor",
        "parent_name_en": "Vayots Dzor",
        "parent_name_hy": "Վայոց ձոր",
        "latitude": "39.813373800000000",
        "longitude": "45.671145000000000"
    },
    {
        "id": 28,
        "issues": [],
        "generated_id": "25",
        "name": "Alaverdi",
        "name_en": "Alaverdi",
        "name_hy": "Ալավերդի",
        "parent_name": "Lori",
        "parent_name_en": "Lori",
        "parent_name_hy": "Լոռի",
        "latitude": "41.092513000000000",
        "longitude": "44.657109000000000"
    },
    {
        "id": 29,
        "issues": [],
        "generated_id": "27",
        "name": "Odzun",
        "name_en": "Odzun",
        "name_hy": "Օձուն",
        "parent_name": "Lori",
        "parent_name_en": "Lori",
        "parent_name_hy": "Լոռի",
        "latitude": "41.049429000000000",
        "longitude": "44.618191000000000"
    },
    {
        "id": 30,
        "issues": [],
        "generated_id": "28",
        "name": "Dsegh",
        "name_en": "Dsegh",
        "name_hy": "Դսեղ",
        "parent_name": "Lori",
        "parent_name_en": "Lori",
        "parent_name_hy": "Լոռի",
        "latitude": "40.965779000000000",
        "longitude": "44.654578000000000"
    },
    {
        "id": 31,
        "issues": [],
        "generated_id": "29",
        "name": "Shnogh",
        "name_en": "Shnogh",
        "name_hy": "Շնող",
        "parent_name": "Lori",
        "parent_name_en": "Lori",
        "parent_name_hy": "Լոռի",
        "latitude": "41.150359000000000",
        "longitude": "44.841540000000000"
    },
    {
        "id": 32,
        "issues": [
            {
                "id": 2,
                "name": "UV Index and Light Intensity",
                "name_en": "UV Index and Light Intensity",
                "name_hy": "UV ինդեքս և լույսի ինտենսիվություն"
            }
        ],
        "generated_id": "30",
        "name": "Koghb",
        "name_en": "Koghb",
        "name_hy": "Կողբ",
        "parent_name": "Tavush",
        "parent_name_en": "Tavush",
        "parent_name_hy": "Տավուշ",
        "latitude": "41.186532000000000",
        "longitude": "44.981241000000000"
    },
    {
        "id": 33,
        "issues": [],
        "generated_id": "31",
        "name": "Gyumri",
        "name_en": "Gyumri",
        "name_hy": "Գյումրի",
        "parent_name": "Shirak",
        "parent_name_en": "Shirak",
        "parent_name_hy": "Շիրակ",
        "latitude": "40.785778000000000",
        "longitude": "43.836609000000000"
    },
    {
        "id": 34,
        "issues": [],
        "generated_id": "33",
        "name": "Dilijan",
        "name_en": "Dilijan",
        "name_hy": "Դիլիջան",
        "parent_name": "Tavush",
        "parent_name_en": "Tavush",
        "parent_name_hy": "Տավուշ",
        "latitude": "40.743527000000000",
        "longitude": "44.872349000000000"
    },
    {
        "id": 35,
        "issues": [
            {
                "id": 4,
                "name": "Wind Speed and Direction",
                "name_en": "Wind Speed and Direction",
                "name_hy": "Քամու արագություն և ուղղություն"
            }
        ],
        "generated_id": "12",
        "name": "Yerazgavors",
        "name_en": "Yerazgavors",
        "name_hy": "Երազգավորս",
        "parent_name": "Shirak",
        "parent_name_en": "Shirak",
        "parent_name_hy": "Շիրակ",
        "latitude": "40.703253000000000",
        "longitude": "43.775969000000000"
    }
]